0 COSMOS 2251 DEB
1 34923U 93036ADU 13270.27900583  .00276662  00000-0  36011-2 0  6426
2 34923 073.9916 241.0429 0019301 101.5869 324.1196 15.57532856242959
0 COSMOS 2251 DEB
1 34923U 93036ADU 13271.20083333  .00282024  00000-0  36055-2 0  6433
2 34923 073.9915 238.9922 0018839 100.3965 092.6516 15.58006352243097
0 COSMOS 2251 DEB
1 34923U 93036ADU 13272.34891340  .00337759  00000-0  41809-2 0  6444
2 34923 073.9883 236.4316 0018224 100.5386 050.5601 15.58699126243273
0 COSMOS 2251 DEB
1 34923U 93036ADU 13273.23128534  .00364244  00000-0  43934-2 0  6452
2 34923 073.9909 234.4684 0018309 100.8071 320.2831 15.59299742243415
0 COSMOS 2251 DEB
1 34923U 93036ADU 13274.25869336  .00445344  00000-0  51690-2 0  6467
2 34923 073.9907 232.1742 0018134 101.1360 326.0348 15.60059475243577
0 COSMOS 2251 DEB
1 34923U 93036ADU 13274.65519829  .00467088  00000-0  53504-2 0  6476
2 34923 073.9918 231.2902 0017925 101.0424 032.2032 15.60341133243632
0 COSMOS 2251 DEB
1 34923U 93036ADU 13275.20849216  .00784606  00000-0  84322-2 0  6496
2 34923 073.9890 230.0480 0017651 101.9830 258.3368 15.61013476243725
0 COSMOS 2251 DEB
1 34923U 93036ADU 13275.21923846  .00901064  00000-0  97379-2 0  6483
2 34923 073.9914 230.0289 0017766 102.8535 317.8438 15.60924628243726
0 COSMOS 2251 DEB
1 34923U 93036ADU 13276.48957046  .00685035  00000-0  70080-2 0  6502
2 34923 073.9900 227.1835 0016519 102.4505 257.8564 15.62628589243927
0 COSMOS 2251 DEB
1 34923U 93036ADU 13276.48959214  .02233910  00000-0  24306-1 0  6503
2 34923 073.9833 227.1528 0023983 104.1365 256.3132 15.62914730243928
0 COSMOS 2251 DEB
1 34923U 93036ADU 13277.51351413  .00697722  00000-0  67733-2 0  6511
2 34923 073.9875 224.8854 0017765 094.4806 265.6705 15.63916188244089
0 COSMOS 2251 DEB
1 34923U 93036ADU 13278.53663869  .00596951  00000-0  56500-2 0  6528
2 34923 073.9905 222.5835 0015744 098.5899 260.8658 15.64903420244247
0 COSMOS 2251 DEB
1 34923U 93036ADU 13279.55929449  .00539637  00000-0  49400-2 0  6530
2 34923 073.9829 220.2884 0019243 088.8578 270.8501 15.65849842244397
0 COSMOS 2251 DEB
1 34923U 93036ADU 13281.15511268  .00941436  00000-0  74676-2 0  6543
2 34923 073.9880 216.6812 0014480 114.6494 245.6239 15.68730342244640
0 COSMOS 2251 DEB
1 34923U 93036ADU 13282.17484438  .02081064  00000-0  14343-1 0  6553
2 34923 073.9842 214.3564 0024478 123.8958 236.4598 15.71141668244807
0 COSMOS 2251 DEB
1 34923U 93036ADU 13283.12899570  .01953972  00000-0  11938-1 0  6569
2 34923 073.9836 212.1973 0013285 127.8666 232.3764 15.74395971244951
0 COSMOS 2251 DEB
1 34923U 93036ADU 13283.12899570  .01953972  00000-0  11938-1 0  6570
2 34923 073.9836 212.1973 0013285 127.8666 232.3764 15.74395971244951
0 COSMOS 2251 DEB
1 34923U 93036ADU 13284.14451526  .02320269  00000-0  11841-1 0  6580
2 34923 073.9641 209.8287 0014096 351.3771 007.9534 15.78029722245121
0 COSMOS 2251 DEB
1 34923U 93036ADU 13284.14462062  .02072088  00000-0  10567-1 0  6595
2 34923 073.9807 209.8727 0014112 138.4170 221.8134 15.77888679245126
0 COSMOS 2251 DEB
1 34923U 93036ADU 13284.14462062  .02072088  00000-0  10567-1 0  6607
2 34923 073.9807 209.8727 0014112 138.4170 221.8134 15.77888679245126
